IRIDIUM 154             
1 43574U 18061F   26189.99937901  .00000206  00000+0  66341-4 0  9993
2 43574  86.3946  47.6840 0002313  90.2234 269.9227 14.34216725416530
IRIDIUM 163             
1 43575U 18061G   26190.05011984  .00000159  00000+0  49806-4 0  9991
2 43575  86.3939  47.5774 0002174  85.0428 275.1016 14.34216950416513
IRIDIUM 156             
1 43576U 18061H   26190.02475020  .00000230  00000+0  75052-4 0  9996
2 43576  86.3939  47.5951 0002061  90.2486 269.8946 14.34217408416508
IRIDIUM 164             
1 43577U 18061J   26190.00572401  .00000123  00000+0  36781-4 0  9993
2 43577  86.3942  47.6440 0002309  89.5769 270.5691 14.34216572416548
IRIDIUM 159             
1 43578U 18061K   26190.04377707  .00000144  00000+0  44180-4 0  9995
2 43578  86.3939  47.5643 0002184  85.5201 274.6245 14.34217269416518
IRIDIUM 180             
1 43922U 19002A   26189.83397031 -.00000120  00000+0 -50051-4 0  9991
2 43922  86.3984 344.5472 0002216  90.2307 269.9143 14.34216440392097
IRIDIUM 176             
1 43923U 19002B   26189.90874114  .00000556  00000+0  84361-4 0  9994
2 43923  86.6104 344.4566 0002347  89.0399 271.1087 14.72243595402446
IRIDIUM 168             
1 43924U 19002C   26189.82762300  .00000063  00000+0  15366-4 0  9991
2 43924  86.3988 344.6280 0002239  90.6605 269.4847 14.34217854392075
IRIDIUM 173             
1 43925U 19002D   26189.95447660  .00000161  00000+0  50335-4 0  9999
2 43925  86.3984 344.4630 0002152  91.2355 268.9087 14.34218330392072
IRIDIUM 169             
1 43926U 19002E   26189.95362090  .00000184  00000+0  53599-4 0  9993
2 43926  86.4219  16.0905 0001725  97.1413 262.9982 14.38613567393352
IRIDIUM 172             
1 43927U 19002F   26189.94813614  .00000237  00000+0  77418-4 0  9991
2 43927  86.3982 344.4736 0002189  90.6927 269.4520 14.34217146392080
IRIDIUM 175             
1 43928U 19002G   26190.24857380  .00000227  00000+0  61056-4 0  9995
2 43928  86.4515 281.2997 0004943 127.2144 232.9509 14.43625261402163
IRIDIUM 171             
1 43929U 19002H   26190.27795041  .00000143  00000+0  44070-4 0  9998
2 43929  86.3992 344.6443 0002192  94.6778 265.4669 14.34217385392122
IRIDIUM 170             
1 43930U 19002J   26189.91491365  .00000558  00000+0  84652-4 0  9991
2 43930  86.6104 344.4562 0002340  85.4411 274.7073 14.72244124402452
IRIDIUM 167             
1 43931U 19002K   26190.27160783  .00000160  00000+0  50173-4 0  9990
2 43931  86.3985 344.3610 0002202  99.4869 260.6576 14.34217510392120
IRIDIUM 181             
1 56726U 23068S   26189.66789602  .00000209  00000+0  56177-4 0  9995
2 56726  86.4479  47.8085 0002460  84.9943 275.1539 14.43309954165531
IRIDIUM 177             
1 56727U 23068T   26190.29488296  .00000794  00000+0  10150-3 0  9991
2 56727  86.1981 318.2942 0002139  92.5299 267.6166 14.80023851169633
IRIDIUM 174             
1 56728U 23068U   26189.83453915  .00000587  00000+0  89204-4 0  9997
2 56728  86.6112 344.6394 0002085  83.2220 276.9235 14.72252477169202
IRIDIUM 178             
1 56729U 23068V   26189.26968867  .00000564  00000+0  71196-4 0  9998
2 56729  86.6533  16.5481 0002285  87.2958 272.8525 14.80024108169480
IRIDIUM 179             
1 56730U 23068W   26190.00808572  .00000695  00000+0  88516-4 0  9999
2 56730  86.6765  25.2837 0002268  91.1427 269.0054 14.80030703169592
